{"type": "FeatureCollection", "features": [ {"type": "Feature", "properties": {"norad_id": 66850, "name": "STARLINK-36105", "group": "last-30-days", "lat": 42.94465806238196, "lon": 120.27003627447735, "alt_km": 408.89178906109464, "timestamp": "2025-12-27T12:55:13.195895+00:00", "meta": {"OBJECT_NAME": "STARLINK-36105", "OBJECT_ID": "2025-281C", "EPOCH": "2025-12-27T06:00:02.000160", "MEAN_MOTION": 15.5059368, "ECCENTRICITY": 9.379e-05, "INCLINATION": 43.0002, "RA_OF_ASC_NODE": 34.7961, "ARG_OF_PERICENTER": 245.4862, "MEAN_ANOMALY": 31.0717, "EPHEMERIS_TYPE": 0, "CLASSIFICATION_TYPE": "U", "NORAD_CAT_ID": 66850, "ELEMENT_SET_NO": 999, "REV_AT_EPOCH": 371, "BSTAR": -0.0012754691, "MEAN_MOTION_DOT": -0.00074495, "MEAN_MOTION_DDOT": 0}, "tle": {"line1": "1 66850U 25281C   25361.25002315 -.00074495  00000+0 -12755-2 0  9990", "line2": "2 66850  43.0002  34.7961 0000937 245.4862  31.0717 15.50593680  3718"}}, "geometry": {"type": "Point", "coordinates": [120.27003627447735, 42.94465806238196]}}, {"type": "Feature", "properties": {"norad_id": 66851, "name": "STARLINK-36094", "group": "last-30-days", "lat": 42.97945033461631, "lon": 122.88616659620082, "alt_km": 408.89076102034414, "timestamp": "2025-12-27T12:55:13.195908+00:00", "meta": {"OBJECT_NAME": "STARLINK-36094", "OBJECT_ID": "2025-281D", "EPOCH": "2025-12-27T06:00:02.000160", "MEAN_MOTION": 15.50619185, "ECCENTRICITY": 0.00010068, "INCLINATION": 43.0001, "RA_OF_ASC_NODE": 34.7908, "ARG_OF_PERICENTER": 240.046, "MEAN_ANOMALY": 38.4149, "EPHEMERIS_TYPE": 0, "CLASSIFICATION_TYPE": "U", "NORAD_CAT_ID": 66851, "ELEMENT_SET_NO": 999, "REV_AT_EPOCH": 371, "BSTAR": -0.0019605367, "MEAN_MOTION_DOT": -0.00113858, "MEAN_MOTION_DDOT": 0}, "tle": {"line1": "1 66851U 25281D   25361.25002315 -.00113858  00000+0 -19605-2 0  9999", "line2": "2 66851  43.0001  34.7908 0001006 240.0460  38.4149 15.50619185  3711"}}, "geometry": {"type": "Point", "coordinates": [122.88616659620082, 42.97945033461631]}}, {"type": "Feature", "properties": {"norad_id": 66852, "name": "STARLINK-35992", "group": "last-30-days", "lat": 42.954629111706694, "lon": 125.4980127679559, "alt_km": 408.38267319445913, "timestamp": "2025-12-27T12:55:13.195920+00:00", "meta": {"OBJECT_NAME": "STARLINK-35992", "OBJECT_ID": "2025-281E", "EPOCH": "2025-12-27T06:00:02.000160", "MEAN_MOTION": 15.50622763, "ECCENTRICITY": 2.245e-05, "INCLINATION": 43.0001, "RA_OF_ASC_NODE": 34.7873, "ARG_OF_PERICENTER": 249.6287, "MEAN_ANOMALY": 30.7287, "EPHEMERIS_TYPE": 0, "CLASSIFICATION_TYPE": "U", "NORAD_CAT_ID": 66852, "ELEMENT_SET_NO": 999, "REV_AT_EPOCH": 371, "BSTAR": -0.0015850234, "MEAN_MOTION_DOT": -0.00092374, "MEAN_MOTION_DDOT": 0}, "tle": {"line1": "1 66852U 25281E   25361.25002315 -.00092374  00000+0 -15850-2 0  9997", "line2": "2 66852  43.0001  34.7873 0000224 249.6287  30.7287 15.50622763  3710"}}, "geometry": {"type": "Point", "coordinates": [125.4980127679559, 42.954629111706694]}}, {"type": "Feature", "properties": {"norad_id": 66853, "name": "STARLINK-35986", "group": "last-30-days", "lat": 42.86985052634581, "lon": 128.11766067245188, "alt_km": 408.4381186812316, "timestamp": "2025-12-27T12:55:13.195932+00:00", "meta": {"OBJECT_NAME": "STARLINK-35986", "OBJECT_ID": "2025-281F", "EPOCH": "2025-12-27T06:00:02.000160", "MEAN_MOTION": 15.50642133, "ECCENTRICITY": 2.633e-05, "INCLINATION": 43.0002, "RA_OF_ASC_NODE": 34.7824, "ARG_OF_PERICENTER": 288.3965, "MEAN_ANOMALY": 353.8712, "EPHEMERIS_TYPE": 0, "CLASSIFICATION_TYPE": "U", "NORAD_CAT_ID": 66853, "ELEMENT_SET_NO": 999, "REV_AT_EPOCH": 371, "BSTAR": -0.0022034657, "MEAN_MOTION_DOT": -0.00127796, "MEAN_MOTION_DDOT": 0}, "tle": {"line1": "1 66853U 25281F   25361.25002315 -.00127796  00000+0 -22035-2 0  9998", "line2": "2 66853  43.0002  34.7824 0000263 288.3965 353.8712 15.50642133  3719"}}, "geometry": {"type": "Point", "coordinates": [128.11766067245188, 42.86985052634581]}}, {"type": "Feature", "properties": {"norad_id": 66854, "name": "STARLINK-36087", "group": "last-30-days", "lat": 42.72599595319427, "lon": 130.7165961739573, "alt_km": 408.3935583272014, "timestamp": "2025-12-27T12:55:13.195942+00:00", "meta": {"OBJECT_NAME": "STARLINK-36087", "OBJECT_ID": "2025-281G", "EPOCH": "2025-12-27T06:00:02.000160", "MEAN_MOTION": 15.50654185, "ECCENTRICITY": 1.731e-05, "INCLINATION": 43.0002, "RA_OF_ASC_NODE": 34.778, "ARG_OF_PERICENTER": 283.0822, "MEAN_ANOMALY": 1.0908, "EPHEMERIS_TYPE": 0, "CLASSIFICATION_TYPE": "U", "NORAD_CAT_ID": 66854, "ELEMENT_SET_NO": 999, "REV_AT_EPOCH": 371, "BSTAR": -0.0024513201, "MEAN_MOTION_DOT": -0.00141938, "MEAN_MOTION_DDOT": 0}, "tle": {"line1": "1 66854U 25281G   25361.25002315 -.00141938  00000+0 -24513-2 0  9996", "line2": "2 66854  43.0002  34.7780 0000173 283.0822   1.0908 15.50654185  3714"}}, "geometry": {"type": "Point", "coordinates": [130.7165961739573, 42.72599595319427]}}, {"type": "Feature", "properties": {"norad_id": 66855, "name": "STARLINK-36090", "group": "last-30-days", "lat": 42.521378257166795, "lon": 133.3239727318555, "alt_km": 408.3858848664995, "timestamp": "2025-12-27T12:55:13.195952+00:00", "meta": {"OBJECT_NAME": "STARLINK-36090", "OBJECT_ID": "2025-281H", "EPOCH": "2025-12-27T06:00:02.000160", "MEAN_MOTION": 15.50740995, "ECCENTRICITY": 1.791e-05, "INCLINATION": 43.0002, "RA_OF_ASC_NODE": 34.7731, "ARG_OF_PERICENTER": 263.0899, "MEAN_ANOMALY": 22.9622, "EPHEMERIS_TYPE": 0, "CLASSIFICATION_TYPE": "U", "NORAD_CAT_ID": 66855, "ELEMENT_SET_NO": 999, "REV_AT_EPOCH": 359, "BSTAR": -0.0046127127, "MEAN_MOTION_DOT": -0.00263525, "MEAN_MOTION_DDOT": 0}, "tle": {"line1": "1 66855U 25281H   25361.25002315 -.00263525  00000+0 -46127-2 0  9999", "line2": "2 66855  43.0002  34.7731 0000179 263.0899  22.9622 15.50740995  3595"}}, "geometry": {"type": "Point", "coordinates": [133.3239727318555, 42.521378257166795]}}, {"type": "Feature", "properties": {"norad_id": 66856, "name": "STARLINK-36072", "group": "last-30-days", "lat": 42.2608086082472, "lon": 135.8844657900039, "alt_km": 408.94104324423006, "timestamp": "2025-12-27T12:55:13.195964+00:00", "meta": {"OBJECT_NAME": "STARLINK-36072", "OBJECT_ID": "2025-281J", "EPOCH": "2025-12-27T06:00:02.000160", "MEAN_MOTION": 15.50624082, "ECCENTRICITY": 8.433e-05, "INCLINATION": 43.0002, "RA_OF_ASC_NODE": 34.7666, "ARG_OF_PERICENTER": 262.4993, "MEAN_ANOMALY": 25.5417, "EPHEMERIS_TYPE": 0, "CLASSIFICATION_TYPE": "U", "NORAD_CAT_ID": 66856, "ELEMENT_SET_NO": 999, "REV_AT_EPOCH": 371, "BSTAR": -0.0020328556, "MEAN_MOTION_DOT": -0.00118003, "MEAN_MOTION_DDOT": 0}, "tle": {"line1": "1 66856U 25281J   25361.25002315 -.00118003  00000+0 -20329-2 0  9996", "line2": "2 66856  43.0002  34.7666 0000843 262.4993  25.5417 15.50624082  3712"}}, "geometry": {"type": "Point", "coordinates": [135.8844657900039, 42.2608086082472]}}, {"type": "Feature", "properties": {"norad_id": 66857, "name": "STARLINK-36083", "group": "last-30-days", "lat": 41.942094900969494, "lon": 138.43335425028016, "alt_km": 409.03632953614033, "timestamp": "2025-12-27T12:55:13.195974+00:00", "meta": {"OBJECT_NAME": "STARLINK-36083", "OBJECT_ID": "2025-281K", "EPOCH": "2025-12-27T06:00:02.000160", "MEAN_MOTION": 15.50617099, "ECCENTRICITY": 9.291e-05, "INCLINATION": 43.0002, "RA_OF_ASC_NODE": 34.7617, "ARG_OF_PERICENTER": 259.3795, "MEAN_ANOMALY": 30.5864, "EPHEMERIS_TYPE": 0, "CLASSIFICATION_TYPE": "U", "NORAD_CAT_ID": 66857, "ELEMENT_SET_NO": 999, "REV_AT_EPOCH": 371, "BSTAR": -0.0019075739, "MEAN_MOTION_DOT": -0.00110825, "MEAN_MOTION_DDOT": 0}, "tle": {"line1": "1 66857U 25281K   25361.25002315 -.00110825  00000+0 -19076-2 0  9998", "line2": "2 66857  43.0002  34.7617 0000929 259.3795  30.5864 15.50617099  3711"}}, "geometry": {"type": "Point", "coordinates": [138.43335425028016, 41.942094900969494]}}, {"type": "Feature", "properties": {"norad_id": 66858, "name": "STARLINK-35118", "group": "last-30-days", "lat": 41.56915665558322, "lon": 140.94348888294132, "alt_km": 409.1076268169654, "timestamp": "2025-12-27T12:55:13.195986+00:00", "meta": {"OBJECT_NAME": "STARLINK-35118", "OBJECT_ID": "2025-281L", "EPOCH": "2025-12-27T06:00:02.000160", "MEAN_MOTION": 15.50606499, "ECCENTRICITY": 0.0001189, "INCLINATION": 43.0002, "RA_OF_ASC_NODE": 34.7567, "ARG_OF_PERICENTER": 239.8225, "MEAN_ANOMALY": 52.0648, "EPHEMERIS_TYPE": 0, "CLASSIFICATION_TYPE": "U", "NORAD_CAT_ID": 66858, "ELEMENT_SET_NO": 999, "REV_AT_EPOCH": 350, "BSTAR": -0.0016125522, "MEAN_MOTION_DOT": -0.00093906, "MEAN_MOTION_DDOT": 0}, "tle": {"line1": "1 66858U 25281L   25361.25002315 -.00093906  00000+0 -16126-2 0  9992", "line2": "2 66858  43.0002  34.7567 0001189 239.8225  52.0648 15.50606499  3504"}}, "geometry": {"type": "Point", "coordinates": [140.94348888294132, 41.56915665558322]}}, {"type": "Feature", "properties": {"norad_id": 66859, "name": "STARLINK-35646", "group": "last-30-days", "lat": 41.139330581018015, "lon": 143.4375480922047, "alt_km": 409.09081887551565, "timestamp": "2025-12-27T12:55:13.195996+00:00", "meta": {"OBJECT_NAME": "STARLINK-35646", "OBJECT_ID": "2025-281M", "EPOCH": "2025-12-27T06:00:02.000160", "MEAN_MOTION": 15.50585045, "ECCENTRICITY": 8.455e-05, "INCLINATION": 43.0001, "RA_OF_ASC_NODE": 34.7522, "ARG_OF_PERICENTER": 258.6196, "MEAN_ANOMALY": 35.1957, "EPHEMERIS_TYPE": 0, "CLASSIFICATION_TYPE": "U", "NORAD_CAT_ID": 66859, "ELEMENT_SET_NO": 999, "REV_AT_EPOCH": 371, "BSTAR": -0.00099728156, "MEAN_MOTION_DOT": -0.00058422, "MEAN_MOTION_DDOT": 0}, "tle": {"line1": "1 66859U 25281M   25361.25002315 -.00058422  00000+0 -99728-3 0  9997", "line2": "2 66859  43.0001  34.7522 0000845 258.6196  35.1957 15.50585045  3710"}}, "geometry": {"type": "Point", "coordinates": [143.4375480922047, 41.139330581018015]}}]}